{"spkid": "50606275", "covariance": {"data": [["2.641995371594654E-16", "-4.493994023916287E-16", "1.322368170051561E-14", "-6.677207508330778E-14", "8.223885742453691E-14", "-6.624739046467719E-15"], ["-4.493994023916287E-16", "7.650397422710436E-16", "-1.911246492218527E-14", "1.154766503460977E-13", "-1.396867933991963E-13", "1.155617149096966E-14"], ["1.322368170051561E-14", "-1.911246492218527E-14", "6.919286433481631E-11", "2.486413337523323E-11", "3.266672400622107E-11", "1.167268204236034E-12"], ["-6.677207508330778E-14", "1.154766503460977E-13", "2.486413337523323E-11", "6.474222895303654E-10", "-6.177819874603228E-10", "-9.655437818118356E-12"], ["8.223885742453691E-14", "-1.396867933991963E-13", "3.266672400622107E-11", "-6.177819874603228E-10", "6.400988104945453E-10", "1.020334840170995E-11"], ["-6.624739046467719E-15", "1.155617149096966E-14", "1.167268204236034E-12", "-9.655437818118356E-12", "1.020334840170995E-11", "4.542954085014309E-12"]], "elements": [{"label": "e", "sigma": 1.6254215981076e-08, "name": "e", "units": null, "value": ".3833068792788581", "title": "eccentricity"}, {"units": "au", "title": "perihelion distance", "value": "1.046236882812152", "name": "q", "sigma": 2.7659351804969e-08, "label": "q"}, {"label": "tp", "name": "tp", "sigma": 8.31822483074462e-06, "value": "2458587.576378526644", "title": "time of perihelion passage", "units": "TDB"}, {"value": "160.905958097505", "title": "longitude of the ascending node", "units": "deg", "sigma": 2.54444942871806e-05, "name": "om", "label": "node"}, {"label": "peri", "name": "w", "sigma": 2.53001741198464e-05, "units": "deg", "title": "argument of perihelion", "value": "179.8645365580514"}, {"name": "i", "sigma": 2.13142067293491e-06, "units": "deg", "title": "inclination", "value": "4.834314725909764", "label": "i"}], "labels": ["e", "q", "tp", "node", "peri", "i"], "epoch": "2458542.5"}, "elements": [{"sigma": "1.6292E-8", "name": "e", "units": null, "title": "eccentricity", "value": ".3836527511295658", "label": "e"}, {"label": "a", "units": "au", "value": "1.697490265098927", "title": "semi-major axis", "sigma": "9.3626E-10", "name": "a"}, {"label": "q", "sigma": "2.7629E-8", "name": "q", "units": "au", "title": "perihelion distance", "value": "1.046243454878067"}, {"name": "i", "sigma": "2.1314E-6", "units": "deg", "value": "4.834668114118671", "title": "inclination; angle with respect to x-y ecliptic plane", "label": "i"}, {"label": "node", "sigma": "2.5441E-5", "name": "om", "units": "deg", "title": "longitude of the ascending node", "value": "160.8661540487759"}, {"label": "peri", "units": "deg", "value": "179.9298998675783", "title": "argument of perihelion", "sigma": "2.5294E-5", "name": "w"}, {"label": "M", "sigma": "4.3979E-6", "name": "ma", "title": "mean anomaly", "value": "85.13243262259778", "units": "deg"}, {"label": "tp", "name": "tp", "sigma": "9.7656E-6", "units": "TDB", "value": "2461009.469853847979", "title": "time of perihelion passage"}, {"label": "period", "sigma": "6.6833E-7", "name": "per", "title": "sidereal orbital period", "value": "807.8102609800521", "units": "d"}, {"label": "n", "name": "n", "sigma": "3.687E-10", "units": "deg/d", "value": ".4456492042614568", "title": "mean motion"}, {"label": "Q", "units": "au", "title": "aphelion distance", "value": "2.348737075319786", "sigma": "1.2955E-9", "name": "ad"}], "epoch": "2461200.5"}